{
  "type": "FeatureCollection",
  "features": [
    {
      "type": "Feature",
      "properties": {
        "norad_id": 43706,
        "name": "BEIDOU-3 M17 (C36)",
        "group": "beidou",
        "lat": 51.8749812081732,
        "lon": -104.26747485120113,
        "alt_km": 21533.25136000748,
        "timestamp": "2025-12-10T09:57:44.964670+00:00",
        "meta_object_name": "BEIDOU-3 M17 (C36)",
        "meta_object_id": "2018-093A",
        "meta_epoch": "2025-12-07T14:48:21.849120",
        "meta_mean_motion": 1.86228285,
        "meta_eccentricity": 0.0006281,
        "meta_inclination": 54.1726,
        "meta_ra_of_asc_node": 188.7957,
        "meta_arg_of_pericenter": 306.8876,
        "meta_mean_anomaly": 53.1241,
        "meta_ephemeris_type": 0,
        "meta_classification_type": "U",
        "meta_norad_cat_id": 43706,
        "meta_element_set_no": 999,
        "meta_rev_at_epoch": 4797,
        "meta_bstar": 0,
        "meta_mean_motion_dot": 5.7e-07,
        "meta_mean_motion_ddot": 0,
        "tle_line1": "1 43706U 18093A   25341.61691955  .00000057  00000+0  00000+0 0  9998",
        "tle_line2": "2 43706  54.1726 188.7957 0006281 306.8876  53.1241  1.86228285 47972"
      },
      "geometry": {
        "type": "Point",
        "coordinates": [
          -104.26747485120113,
          51.8749812081732
        ]
      }
    },
    {
      "type": "Feature",
      "properties": {
        "norad_id": 43707,
        "name": "BEIDOU-3 M18 (C37)",
        "group": "beidou",
        "lat": 8.9450550341284,
        "lon": 2.168597542072725,
        "alt_km": 21545.087064967825,
        "timestamp": "2025-12-10T09:57:44.964681+00:00",
        "meta_object_name": "BEIDOU-3 M18 (C37)",
        "meta_object_id": "2018-093B",
        "meta_epoch": "2025-12-09T02:08:32.306784",
        "meta_mean_motion": 1.86226655,
        "meta_eccentricity": 0.00062934,
        "meta_inclination": 54.1729,
        "meta_ra_of_asc_node": 188.7377,
        "meta_arg_of_pericenter": 351.6926,
        "meta_mean_anomaly": 8.358,
        "meta_ephemeris_type": 0,
        "meta_classification_type": "U",
        "meta_norad_cat_id": 43707,
        "meta_element_set_no": 999,
        "meta_rev_at_epoch": 4799,
        "meta_bstar": 0,
        "meta_mean_motion_dot": 4.9e-07,
        "meta_mean_motion_ddot": 0,
        "tle_line1": "1 43707U 18093B   25343.08926281  .00000049  00000+0  00000+0 0  9996",
        "tle_line2": "2 43707  54.1729 188.7377 0006293 351.6926   8.3580  1.86226655 47998"
      },
      "geometry": {
        "type": "Point",
        "coordinates": [
          2.168597542072725,
          8.9450550341284
        ]
      }
    },
    {
      "type": "Feature",
      "properties": {
        "norad_id": 44204,
        "name": "BEIDOU-3 IGSO-1 (C38)",
        "group": "beidou",
        "lat": -45.73395827361485,
        "lon": 0.5751525132221451,
        "alt_km": 35781.498485135555,
        "timestamp": "2025-12-10T09:57:44.964693+00:00",
        "meta_object_name": "BEIDOU-3 IGSO-1 (C38)",
        "meta_object_id": "2019-023A",
        "meta_epoch": "2025-11-19T14:15:02.708640",
        "meta_mean_motion": 1.00252177,
        "meta_eccentricity": 0.0026966,
        "meta_inclination": 58.4003,
        "meta_ra_of_asc_node": 39.8168,
        "meta_arg_of_pericenter": 221.2202,
        "meta_mean_anomaly": 126.9723,
        "meta_ephemeris_type": 0,
        "meta_classification_type": "U",
        "meta_norad_cat_id": 44204,
        "meta_element_set_no": 999,
        "meta_rev_at_epoch": 510,
        "meta_bstar": 0,
        "meta_mean_motion_dot": -2.26e-06,
        "meta_mean_motion_ddot": 0,
        "tle_line1": "1 44204U 19023A   25323.59378135 -.00000226  00000+0  00000+0 0  9994",
        "tle_line2": "2 44204  58.4003  39.8168 0026966 221.2202 126.9723  1.00252177  5102"
      },
      "geometry": {
        "type": "Point",
        "coordinates": [
          0.5751525132221451,
          -45.73395827361485
        ]
      }
    },
    {
      "type": "Feature",
      "properties": {
        "norad_id": 44231,
        "name": "BEIDOU-2 G8 (C01)",
        "group": "beidou",
        "lat": -1.442695275254985,
        "lon": 13.426469135667395,
        "alt_km": 35761.29773917262,
        "timestamp": "2025-12-10T09:57:44.964710+00:00",
        "meta_object_name": "BEIDOU-2 G8 (C01)",
        "meta_object_id": "2019-027A",
        "meta_epoch": "2025-12-10T03:41:38.473728",
        "meta_mean_motion": 1.00268281,
        "meta_eccentricity": 0.000857,
        "meta_inclination": 1.6554,
        "meta_ra_of_asc_node": 74.684,
        "meta_arg_of_pericenter": 255.0063,
        "meta_mean_anomaly": 309.3785,
        "meta_ephemeris_type": 0,
        "meta_classification_type": "U",
        "meta_norad_cat_id": 44231,
        "meta_element_set_no": 999,
        "meta_rev_at_epoch": 2418,
        "meta_bstar": 0,
        "meta_mean_motion_dot": -2.45e-06,
        "meta_mean_motion_ddot": 0,
        "tle_line1": "1 44231U 19027A   25344.15391752 -.00000245  00000+0  00000+0 0  9994",
        "tle_line2": "2 44231   1.6554  74.6840 0008570 255.0063 309.3785  1.00268281 24185"
      },
      "geometry": {
        "type": "Point",
        "coordinates": [
          13.426469135667395,
          -1.442695275254985
        ]
      }
    },
    {
      "type": "Feature",
      "properties": {
        "norad_id": 44337,
        "name": "BEIDOU-3 IGSO-2 (C39)",
        "group": "beidou",
        "lat": -6.370403548326773,
        "lon": -15.035139932923022,
        "alt_km": 35635.59008748999,
        "timestamp": "2025-12-10T09:57:44.964721+00:00",
        "meta_object_name": "BEIDOU-3 IGSO-2 (C39)",
        "meta_object_id": "2019-035A",
        "meta_epoch": "2025-12-08T21:18:38.600064",
        "meta_mean_motion": 1.00272014,
        "meta_eccentricity": 0.0037301,
        "meta_inclination": 55.2241,
        "meta_ra_of_asc_node": 160.5341,
        "meta_arg_of_pericenter": 202.3504,
        "meta_mean_anomaly": 154.1975,
        "meta_ephemeris_type": 0,
        "meta_classification_type": "U",
        "meta_norad_cat_id": 44337,
        "meta_element_set_no": 999,
        "meta_rev_at_epoch": 2375,
        "meta_bstar": 0,
        "meta_mean_motion_dot": -7.9e-07,
        "meta_mean_motion_ddot": 0,
        "tle_line1": "1 44337U 19035A   25342.88794676 -.00000079  00000+0  00000+0 0  9995",
        "tle_line2": "2 44337  55.2241 160.5341 0037301 202.3504 154.1975  1.00272014 23758"
      },
      "geometry": {
        "type": "Point",
        "coordinates": [
          -15.035139932923022,
          -6.370403548326773
        ]
      }
    },
    {
      "type": "Feature",
      "properties": {
        "norad_id": 44542,
        "name": "BEIDOU-3 M24 (C46)",
        "group": "beidou",
        "lat": 43.915428367736965,
        "lon": -34.52078212201691,
        "alt_km": 21526.03398808876,
        "timestamp": "2025-12-10T09:57:44.964733+00:00",
        "meta_object_name": "BEIDOU-3 M24 (C46)",
        "meta_object_id": "2019-061A",
        "meta_epoch": "2025-12-08T02:04:30.505152",
        "meta_mean_motion": 1.86229279,
        "meta_eccentricity": 0.00095745,
        "meta_inclination": 54.4002,
        "meta_ra_of_asc_node": 189.1732,
        "meta_arg_of_pericenter": 24.5539,
        "meta_mean_anomaly": 335.5587,
        "meta_ephemeris_type": 0,
        "meta_classification_type": "U",
        "meta_norad_cat_id": 44542,
        "meta_element_set_no": 999,
        "meta_rev_at_epoch": 4223,
        "meta_bstar": 0,
        "meta_mean_motion_dot": 5.3e-07,
        "meta_mean_motion_ddot": 0,
        "tle_line1": "1 44542U 19061A   25342.08646418  .00000053  00000+0  00000+0 0  9995",
        "tle_line2": "2 44542  54.4002 189.1732 0009574  24.5539 335.5587  1.86229279 42233"
      },
      "geometry": {
        "type": "Point",
        "coordinates": [
          -34.52078212201691,
          43.915428367736965
        ]
      }
    },
    {
      "type": "Feature",
      "properties": {
        "norad_id": 44543,
        "name": "BEIDOU-3 M23 (C45)",
        "group": "beidou",
        "lat": 27.09580566840908,
        "lon": -149.42402663455331,
        "alt_km": 21508.398282012295,
        "timestamp": "2025-12-10T09:57:44.964745+00:00",
        "meta_object_name": "BEIDOU-3 M23 (C45)",
        "meta_object_id": "2019-061B",
        "meta_epoch": "2025-12-08T18:00:07.463232",
        "meta_mean_motion": 1.8622754,
        "meta_eccentricity": 0.00060873,
        "meta_inclination": 54.3989,
        "meta_ra_of_asc_node": 189.119,
        "meta_arg_of_pericenter": 23.0878,
        "meta_mean_anomaly": 334.736,
        "meta_ephemeris_type": 0,
        "meta_classification_type": "U",
        "meta_norad_cat_id": 44543,
        "meta_element_set_no": 999,
        "meta_rev_at_epoch": 4224,
        "meta_bstar": 0,
        "meta_mean_motion_dot": 5e-07,
        "meta_mean_motion_ddot": 0,
        "tle_line1": "1 44543U 19061B   25342.75008638  .00000050  00000+0  00000+0 0  9993",
        "tle_line2": "2 44543  54.3989 189.1190 0006087  23.0878 334.7360  1.86227540 42241"
      },
      "geometry": {
        "type": "Point",
        "coordinates": [
          -149.42402663455331,
          27.09580566840908
        ]
      }
    }
  ]
}